COSMOS 1953             
1 19210U 88050A   16040.81452792  .00001523  00000-0  10650-3 0  9999
2 19210  82.5199 151.4851 0014886 138.7052 221.5303 15.04529703503636
SL-8 R/B                
1 19257U 88053B   16041.51758412  .00000055  00000-0  27137-4 0  9997
2 19257  74.0484  42.2127 0019323  52.8409  76.7313 14.37284811447985
COSMOS 1975             
1 19573U 88093A   16040.83297709  .00001811  00000-0  13079-3 0  9993
2 19573  82.5201 102.5744 0014907 171.5963 188.5516 15.03433226485663
SL-14 R/B               
1 19574U 88093B   16040.56579178  .00000238  00000-0  26275-4 0  9992
2 19574  82.5296 246.5324 0020463 306.4542 107.4625 14.83115635476284
SL-16 R/B               
1 19650U 88102B   16041.18890577  .00000214  00000-0  13314-3 0  9999
2 19650  71.0018 331.7116 0015700 219.7400 140.2574 14.15730629406212
INTERCOSMOS 24          
1 20261U 89080A   16040.86166280  .00000478  00000-0  13542-3 0  9991
2 20261  82.5985 329.4690 1205514 154.2404 212.4175 12.55712028204046
SL-14 R/B               
1 20262U 89080C   16040.82804843  .00000268  00000-0  81682-4 0  9990
2 20262  82.5959  12.0470 1236647 301.3234  47.2508 12.48786150200135
DELTA 1 R/B             
1 20323U 89089B   16040.64182025  .00000141  00000-0  45780-4 0  9997
2 20323  97.0675  60.1008 0071634 192.4648 167.4779 14.48085696383293
DELTA 2 R/B(1)          
1 20453U 90008B   16040.49685770  .00004882  00000-0  28949-3 0  9995
2 20453  35.6239 246.6434 0297651  27.8565 333.7744 14.80757944374910
COSMOS 2058             
1 20465U 90010A   16041.29409542  .00001521  00000-0  12956-3 0  9999
2 20465  82.4913   1.5938 0016508 148.9305 211.2897 14.97010755411580
SL-14 R/B               
1 20466U 90010B   16040.70055205  .00000247  00000-0  28631-4 0  9990
2 20466  82.5038 114.3206 0021225 155.5324 204.6902 14.81186538404444
SL-14 R/B               
1 20511U 90018B   16041.55360580  .00000231  00000-0  27544-4 0  9993
2 20511  82.5206  52.8484 0016033 290.4034 186.2512 14.79848516399201
HST                     
1 20580U 90037B   16041.40581657  .00002115  00000-0  12229-3 0  9990
2 20580  28.4710  22.4349 0002591 274.9043 218.1124 15.08136994215800
SL-16 R/B               
1 20625U 90046B   16041.57638006  .00000300  00000-0  18098-3 0  9993
2 20625  70.9995 103.0073 0012906 142.9539 319.3175 14.14593425328179
COSMOS 2084             
1 20663U 90055A   16041.53187370  .00000959  00000-0  10422-3 0  9997
2 20663  62.7932  71.7310 0111274  40.1683 320.7568 14.90989091386339
SL-6 R/B(2)             
1 20666U 90055D   16041.11137315  .00001310  00000-0  13026-3 0  9993
2 20666  62.7856 353.3677 0126015  60.4707 300.8881 14.91381194387624
SL-8 R/B                
1 20775U 90078B   16040.51664211  .00004996  00000-0  25198-3 0  9998
2 20775  82.9288  91.9222 0603865  59.7357 306.2178 14.27269057278253
SL-8 R/B                
1 21088U 91006B   16041.20574757  .00000123  00000-0  10898-3 0  9999
2 21088  82.9415  26.6957 0021134 259.9593 175.2878 13.77026293257752
OKEAN-3                 
1 21397U 91039A   16040.62261180  .00000983  00000-0  93982-4 0  9996
2 21397  82.5196 247.1017 0019587  87.7120 272.6342 14.92055734336178
COSMOS 2151             
1 21422U 91042A   16040.89882215  .00000838  00000-0  80958-4 0  9994
2 21422  82.5024 355.7625 0015386 136.4877 223.7560 14.91520832334961
SL-14 R/B               
1 21423U 91042B   16040.80561632  .00000200  00000-0  23467-4 0  9998
2 21423  82.4914  62.4537 0019135  68.4361 291.8889 14.79601498329622
ERS-1                   
1 21574U 91050A   16041.39818437  .00000285  00000-0  10886-3 0  9990
2 21574  98.3998 352.1832 0032981 349.7920  10.2594 14.37449221286798
ARIANE 40 R/B           
1 21610U 91050F   16040.75761124  .00000116  00000-0  50520-4 0  9993
2 21610  98.6743  86.3474 0002800 356.3807 115.2318 14.40698418289064
INTERCOSMOS 25          
1 21819U 91086A   16040.33049920  .00001642  00000-0  31439-3 0  9992
2 21819  82.5611 359.8965 1527128  57.3912 316.5432 12.04033867 52830
SL-14 R/B               
1 21820U 91086B   16039.64053025  .00000344  00000-0  68504-4 0  9999
2 21820  82.5591  50.1557 1577478 227.8532 117.7578 11.93101445 47800
SL-8 R/B                
1 21876U 92008B   16039.73178557  .00000076  00000-0  62916-4 0  9996
2 21876  82.9281 124.6986 0034042 336.5778 132.9448 13.75571584203400
SL-8 R/B                
1 21938U 92020B   16039.90424286 -.00000005  00000-0 -21120-4 0  9997
2 21938  82.9307   7.4154 0030164 129.4430 289.6166 13.75230667195353
SL-16 R/B               
1 22220U 92076B   16041.09621904 -.00000107  00000-0 -29823-4 0  9993
2 22220  71.0011  17.1535 0014997 299.0639 110.4018 14.16391474200951
SL-16 R/B               
1 22285U 92093B   16041.50850340  .00000132  00000-0  92707-4 0  9994
2 22285  71.0223 165.7846 0003996 190.9310 169.1726 14.14991643192841
COSMOS 2228             
1 22286U 92094A   16041.45043471  .00000897  00000-0  96438-4 0  9992
2 22286  82.5222 118.5707 0019557 320.0088  39.9688 14.87333610249240
SL-16 R/B               
1 22566U 93016B   16040.53871906 -.00000002  00000-0  23592-4 0  9998
2 22566  71.0086  23.0956 0009921 178.1380 181.9781 14.14924850181440
COSMOS 2242             
1 22626U 93024A   16040.79748627  .00000858  00000-0  92097-4 0  9999
2 22626  82.5243 146.8531 0018117 321.5726  38.4200 14.87340016232802
SL-16 R/B               
1 22803U 93059B   16040.76769384  .00000008  00000-0  27886-4 0  9995
2 22803  70.9886 209.1559 0015345  52.3983 307.8531 14.16735291158396
ARIANE 40 R/B           
1 22830U 93061H   16041.56141019  .00000049  00000-0  36040-4 0  9993
2 22830  98.8823  39.5763 0009926 288.3148 179.2061 14.31396595167778
COSMOS 2278             
1 23087U 94023A   16040.32469755 -.00000189  00000-0 -74853-4 0  9991
2 23087  71.0556 311.1371 0011566 254.2786 105.7060 14.13709031124696
SL-16 R/B               
1 23088U 94023B   16040.99949927  .00000246  00000-0  15255-3 0  9991
2 23088  70.9980 237.1741 0002223 169.0674 191.0497 14.14638067125798
SL-16 R/B               
1 23343U 94074B   16040.64673380  .00000125  00000-0  25605-4 0  9997
2 23343  98.2053  65.1579 0006304 204.7024 265.8163 14.76630966143994
SL-16 R/B               
1 23405U 94077B   16041.54578940  .00000151  00000-0  10234-3 0  9995
2 23405  70.9826 171.1624 0003663 312.5614  47.5199 14.15173126 95819
ERS-2                   
1 23560U 95021A   16040.77032583  .00006936  00000-0  34540-3 0  9992
2 23560  98.5096 323.4891 0004058 155.9178 204.2243 15.17967130100455
ARIANE 40+ R/B          
1 23561U 95021B   16040.92516866  .00000172  00000-0  72554-4 0  9995
2 23561  98.7588  25.6233 0005921 281.6670 106.3342 14.37703285 90370
SL-16 R/B               
1 23705U 95058B   16041.19001890 -.00000281  00000-0 -12026-3 0  9991
2 23705  71.0240 343.3482 0013986 320.6796  39.3310 14.15080743 47441
SL-16 R/B               
1 24298U 96051B   16041.17339815 -.00000065  00000-0 -86645-5 0  9992
2 24298  70.8347  21.3602 0018184 204.3241 155.7023 14.12387309  2203
ORBVIEW 2 (SEASTAR)     
1 24883U 97037A   16041.00144652  .00000137  00000-0  65396-4 0  9999
2 24883  98.5121 151.0353 0003394 118.1026 242.0502 14.33283314981251
SL-16 R/B               
1 25400U 98043G   16041.50764209  .00000032  00000-0  31219-4 0  9995
2 25400  98.4213   1.3710 0008860 302.2574  57.7748 14.25369198914883
SL-16 R/B               
1 25407U 98045B   16041.19138238  .00000226  00000-0  13920-3 0  9999
2 25407  71.0131 357.4229 0009868 244.9757 115.0342 14.15737777906408
ISS (ZARYA)             
1 25544U 98067A   16041.28784270  .00013572  00000-0  20844-3 0  9999
2 25544  51.6457 335.8524 0006954 101.4053  21.3548 15.54568476985082
SL-8 R/B                
1 25723U 99022C   16040.85217921  .00011841  00000-0  24568-3 0  9990
2 25723  48.4177 263.0796 0013702 188.0237 263.7587 15.45949284929950
CZ-4B R/B               
1 25732U 99025C   16040.89367339  .00000010  00000-0  26845-4 0  9993
2 25732  98.9635  31.3493 0038258  56.4791 359.6550 14.17598248866745
OKEAN-O                 
1 25860U 99039A   16040.83266696  .00000475  00000-0  76107-4 0  9999
2 25860  98.1282  14.7522 0000847  78.4120 339.8598 14.76280010891041
SL-16 R/B               
1 25861U 99039B   16040.48824166  .00000233  00000-0  39388-4 0  9995
2 25861  98.0365   4.6492 0014607 229.2716 206.2589 14.78270774892836
TERRA                   
1 25994U 99068A   16041.43256914  .00000274  00000-0  70759-4 0  9992
2 25994  98.2005 117.5312 0001404 112.0687 248.0664 14.57121578858911
SL-14 R/B               
1 26874U 01032B   16041.22077529  .00029034  00000-0  19877-3 0  9992
2 26874  82.4596  61.3844 0006844 344.4381  15.6671 15.74559781815460
ENVISAT                 
1 27386U 02009A   16041.49942261  .00000023  00000-0  21656-4 0  9995
2 27386  98.3023  99.3792 0001047  76.0457 284.0848 14.37854265730271
IDEFIX & ARIANE 42P R/B 
1 27422U 02021B   16040.67860383  .00000040  00000-0  31888-4 0  9990
2 27422  98.2384  62.2515 0011179 258.4242 101.5686 14.29230264716183
AQUA                    
1 27424U 02022A   16041.55329950  .00000498  00000-0  12056-3 0  9993
2 27424  98.2214 343.9777 0000957 102.0243  70.6981 14.57124204732531
CZ-4B R/B               
1 27432U 02024C   16040.56260810  .00000018  00000-0  32820-4 0  9993
2 27432  98.9194   7.2253 0050423 351.5300 118.2040 14.14003810709037
MIDORI II (ADEOS-II)    
1 27597U 02056A   16040.53022512  .00000140  00000-0  74261-4 0  9993
2 27597  98.3091  26.9023 0001365  41.0193  67.1743 14.27178886685006
H-2A R/B                
1 27601U 02056E   16041.21460458  .00000132  00000-0  64027-4 0  9990
2 27601  98.4309 118.4853 0071331 316.5794  63.8994 14.31685155687279
CZ-4B R/B               
1 28059U 03049C   16041.54484196  .00000135  00000-0  44884-4 0  9994
2 28059  98.6311 269.6741 0049372 309.4062 107.5517 14.52421313652160
CZ-2C R/B               
1 28222U 04012C   16040.55232443  .00002476  00000-0  16004-3 0  9995
2 28222  97.4578   2.9210 0051617  78.8138  29.1429 15.08020376646181
